[{"OBJECT_NAME":"STARLINK-32910","OBJECT_ID":"2025-037N","EPOCH":"2026-03-09T23:21:53.835264","MEAN_MOTION":14.98327777,"ECCENTRICITY":0.00025697,"INCLINATION":70.0042,"RA_OF_ASC_NODE":353.7719,"ARG_OF_PERICENTER":252.3514,"MEAN_ANOMALY":107.7365,"EPHEMERIS_TYPE":0,"CLASSIFICATION_TYPE":"U","NORAD_CAT_ID":63089,"ELEMENT_SET_NO":999,"REV_AT_EPOCH":5864,"BSTAR":0.0013295656,"MEAN_MOTION_DOT":0.00015806,"MEAN_MOTION_DDOT":0},{"OBJECT_NAME":"EZIE-B","OBJECT_ID":"2025-052AS","EPOCH":"2026-03-09T23:09:37.705536","MEAN_MOTION":14.96286279,"ECCENTRICITY":0.00040038,"INCLINATION":97.7009,"RA_OF_ASC_NODE":322.7783,"ARG_OF_PERICENTER":146.8572,"MEAN_ANOMALY":213.2901,"EPHEMERIS_TYPE":0,"CLASSIFICATION_TYPE":"U","NORAD_CAT_ID":63250,"ELEMENT_SET_NO":999,"REV_AT_EPOCH":5382,"BSTAR":0.00063815223,"MEAN_MOTION_DOT":7.158e-5,"MEAN_MOTION_DDOT":0}]
